{
"type": "FeatureCollection",
"name": "states",
"crs": { "type": "name", "properties": { "name": "urn:ogc:def:crs:EPSG::4269" } },
"features": [
{ "type": "Feature", "properties": { "STUSPS": "MD", "NAME": "Maryland" }, "geometry": { "type": "MultiPolygon", "coordinates": [ [ [ [ -76.046213, 38.025533 ], [ -76.007337, 38.036706 ], [ -75.980089, 38.004891 ], [ -75.984648, 37.938121 ], [ -76.04653, 37.953586 ], [ -76.046213, 38.025533 ] ] ], [ [ [ -79.486873, 39.205961 ], [ -79.476662, 39.721078 ], [ -75.788596, 39.722199 ], [ -75.693721, 38.460128 ], [ -75.048939, 38.451263 ], [ -75.085518, 38.32427 ], [ -75.102947, 38.311525 ], [ -75.193796, 38.096013 ], [ -75.242266, 38.027209 ], [ -75.624341, 37.994211 ], [ -75.669711, 37.950796 ], [ -75.722662, 37.97131 ], [ -75.783815, 37.972594 ], [ -75.860727, 37.91831 ], [ -75.892686, 37.916848 ], [ -75.898956, 37.974514 ], [ -75.857507, 38.038778 ], [ -75.86381, 38.100968 ], [ -75.937089, 38.124209 ], [ -75.942375, 38.187066 ], [ -75.864104, 38.200858 ], [ -75.888513, 38.241423 ], [ -76.038935, 38.254932 ], [ -76.005904, 38.07717 ], [ -76.048692, 38.086728 ], [ -76.095548, 38.125123 ], [ -76.088639, 38.192649 ], [ -76.217613, 38.305683 ], [ -76.257667, 38.324855 ], [ -76.25, 38.362304 ], [ -76.33636, 38.492235 ], [ -76.277461, 38.541851 ], [ -76.290043, 38.569158 ], [ -76.279589, 38.60952 ], [ -76.165435, 38.6102 ], [ -76.175159, 38.673236 ], [ -76.200334, 38.670774 ], [ -76.238725, 38.712845 ], [ -76.275015, 38.712714 ], [ -76.322418, 38.679304 ], [ -76.347998, 38.686234 ], [ -76.340543, 38.730338 ], [ -76.39035, 38.757004 ], [ -76.379739, 38.788314 ], [ -76.310081, 38.796846 ], [ -76.271575, 38.851771 ], [ -76.219328, 38.812371 ], [ -76.19109, 38.82966 ], [ -76.203638, 38.928382 ], [ -76.317947, 38.911312 ], [ -76.334019, 38.860238 ], [ -76.376202, 38.850461 ], [ -76.361727, 38.939175 ], [ -76.301847, 39.039651 ], [ -76.231765, 39.018518 ], [ -76.233457, 39.091385 ], [ -76.278527, 39.145764 ], [ -76.211253, 39.269812 ], [ -76.177704, 39.298701 ], [ -76.159673, 39.335909 ], [ -76.110527, 39.372257 ], [ -76.00688, 39.414527 ], [ -76.012312, 39.453115 ], [ -76.060931, 39.452208 ], [ -76.146373, 39.40531 ], [ -76.296609, 39.301137 ], [ -76.349994, 39.248822 ], [ -76.425281, 39.205708 ], [ -76.498384, 39.204808 ], [ -76.525785, 39.177908 ], [ -76.428681, 39.131709 ], [ -76.420394, 39.04207 ], [ -76.39408, 39.011311 ], [ -76.448981, 38.982811 ], [ -76.471281, 38.956512 ], [ -76.45028, 38.941113 ], [ -76.516944, 38.851157 ], [ -76.489878, 38.838715 ], [ -76.558743, 38.756352 ], [ -76.526655, 38.72443 ], [ -76.528923, 38.663889 ], [ -76.511278, 38.615745 ], [ -76.517506, 38.539149 ], [ -76.492699, 38.482849 ], [ -76.393378, 38.389477 ], [ -76.387002, 38.361267 ], [ -76.402894, 38.311402 ], [ -76.374481, 38.296348 ], [ -76.392668, 38.239663 ], [ -76.320136, 38.138339 ], [ -76.330794, 38.099331 ], [ -76.322093, 38.036503 ], [ -76.430425, 38.119383 ], [ -76.481036, 38.115873 ], [ -76.54038, 38.152991 ], [ -76.590637, 38.214212 ], [ -76.673462, 38.234401 ], [ -76.740055, 38.235227 ], [ -76.864292, 38.268945 ], [ -76.975492, 38.347327 ], [ -77.016371, 38.445572 ], [ -77.211188, 38.380662 ], [ -77.259962, 38.435821 ], [ -77.246584, 38.538341 ], [ -77.183767, 38.600699 ], [ -77.129084, 38.614364 ], [ -77.132501, 38.673816 ], [ -77.079499, 38.709515 ], [ -77.053199, 38.709915 ], [ -77.039006, 38.791645 ], [ -76.909393, 38.892852 ], [ -77.041018, 38.995548 ], [ -77.119759, 38.934343 ], [ -77.146601, 38.96421 ], [ -77.249803, 38.985909 ], [ -77.248403, 39.026909 ], [ -77.310705, 39.052008 ], [ -77.462617, 39.076248 ], [ -77.481279, 39.105658 ], [ -77.519929, 39.120925 ], [ -77.521222, 39.161057 ], [ -77.459883, 39.218682 ], [ -77.588235, 39.301955 ], [ -77.719519, 39.321314 ], [ -77.74593, 39.353221 ], [ -77.740012, 39.401694 ], [ -77.823762, 39.525907 ], [ -77.829814, 39.587288 ], [ -77.925988, 39.607642 ], [ -78.006734, 39.601337 ], [ -78.08226, 39.671166 ], [ -78.225075, 39.658878 ], [ -78.382959, 39.622246 ], [ -78.460951, 39.525987 ], [ -78.590654, 39.530192 ], [ -78.707098, 39.555857 ], [ -78.77114, 39.638387 ], [ -78.942618, 39.479614 ], [ -78.956751, 39.440264 ], [ -79.035623, 39.473344 ], [ -79.091329, 39.472407 ], [ -79.283723, 39.30964 ], [ -79.424413, 39.228171 ], [ -79.486873, 39.205961 ] ] ] ] } },
{ "type": "Feature", "properties": { "STUSPS": "CT", "NAME": "Connecticut" }, "geometry": { "type": "Polygon", "coordinates": [ [ [ -73.727775, 41.100696 ], [ -73.482709, 41.21276 ], [ -73.550961, 41.295422 ], [ -73.487314, 42.049638 ], [ -72.847142, 42.036894 ], [ -72.810078, 41.998316 ], [ -72.766739, 42.002995 ], [ -72.735496, 42.036399 ], [ -71.80065, 42.023569 ], [ -71.789678, 41.724734 ], [ -71.797683, 41.416709 ], [ -71.839649, 41.412119 ], [ -71.835951, 41.353935 ], [ -71.860513, 41.320248 ], [ -71.886302, 41.33641 ], [ -72.094443, 41.314164 ], [ -72.134221, 41.299398 ], [ -72.201422, 41.315697 ], [ -72.293044, 41.280044 ], [ -72.348643, 41.277446 ], [ -72.386629, 41.261798 ], [ -72.40593, 41.278398 ], [ -72.547235, 41.250499 ], [ -72.598036, 41.268698 ], [ -72.760341, 41.241235 ], [ -72.786142, 41.264796 ], [ -72.881445, 41.242597 ], [ -72.935646, 41.258497 ], [ -73.020449, 41.206397 ], [ -73.07945, 41.194015 ], [ -73.108352, 41.153718 ], [ -73.202656, 41.158096 ], [ -73.262358, 41.117496 ], [ -73.372296, 41.10402 ], [ -73.354231, 41.085639 ], [ -73.387227, 41.058247 ], [ -73.516903, 41.038738 ], [ -73.657336, 40.985171 ], [ -73.659533, 41.017857 ], [ -73.727775, 41.100696 ] ] ] } },
{ "type": "Feature", "properties": { "STUSPS": "NY", "NAME": "New York" }, "geometry": { "type": "MultiPolygon", "coordinates": [ [ [ [ -72.018926, 41.274114 ], [ -71.926802, 41.290122 ], [ -71.917281, 41.251333 ], [ -72.034754, 41.234818 ], [ -72.018926, 41.274114 ] ] ], [ [ [ -79.761951, 42.26986 ], [ -79.453533, 42.411157 ], [ -79.381943, 42.466491 ], [ -79.138569, 42.564462 ], [ -79.111361, 42.613358 ], [ -79.06376, 42.644758 ], [ -79.04886, 42.689158 ], [ -78.904843, 42.746121 ], [ -78.851355, 42.791758 ], [ -78.882557, 42.867258 ], [ -78.912458, 42.886557 ], [ -78.909159, 42.933257 ], [ -78.927957, 42.952922 ], [ -78.961761, 42.957756 ], [ -79.019964, 42.994756 ], [ -79.00545, 43.057231 ], [ -79.074467, 43.077855 ], [ -79.044567, 43.153255 ], [ -79.070469, 43.262454 ], [ -78.547395, 43.369541 ], [ -78.145195, 43.37551 ], [ -77.760231, 43.341161 ], [ -77.551022, 43.235763 ], [ -77.341092, 43.280661 ], [ -77.130429, 43.285635 ], [ -76.952174, 43.270692 ], [ -76.769025, 43.318452 ], [ -76.684856, 43.352691 ], [ -76.630774, 43.413356 ], [ -76.417581, 43.521285 ], [ -76.368849, 43.525822 ], [ -76.319701, 43.512275 ], [ -76.235834, 43.529256 ], [ -76.203473, 43.574978 ], [ -76.196596, 43.649761 ], [ -76.229268, 43.804135 ], [ -76.296758, 43.857079 ], [ -76.441848, 43.882864 ], [ -76.412138, 43.925676 ], [ -76.279314, 43.972462 ], [ -76.307674, 44.025277 ], [ -76.37556, 44.031536 ], [ -76.361836, 44.072721 ], [ -76.370706, 44.100499 ], [ -76.334584, 44.164945 ], [ -76.286547, 44.203773 ], [ -76.206777, 44.214543 ], [ -76.164265, 44.239603 ], [ -76.161833, 44.280777 ], [ -76.000998, 44.347534 ], [ -75.94954, 44.349129 ], [ -75.834126, 44.422433 ], [ -75.76623, 44.515851 ], [ -75.423943, 44.756329 ], [ -75.255517, 44.857651 ], [ -75.066245, 44.930174 ], [ -75.005155, 44.958402 ], [ -74.992756, 44.977449 ], [ -74.907956, 44.983359 ], [ -74.834669, 45.014683 ], [ -74.74464, 44.990577 ], [ -73.343124, 45.01084 ], [ -73.338979, 44.917681 ], [ -73.379822, 44.857037 ], [ -73.365678, 44.826451 ], [ -73.33443, 44.802188 ], [ -73.389966, 44.61962 ], [ -73.367275, 44.567545 ], [ -73.312871, 44.507246 ], [ -73.293613, 44.440559 ], [ -73.334637, 44.356877 ], [ -73.316618, 44.257769 ], [ -73.395399, 44.166903 ], [ -73.43688, 44.042578 ], [ -73.405977, 44.011485 ], [ -73.407742, 43.929887 ], [ -73.374051, 43.875563 ], [ -73.390302, 43.817371 ], [ -73.350707, 43.770463 ], [ -73.414546, 43.658209 ], [ -73.424977, 43.598775 ], [ -73.395767, 43.568087 ], [ -73.327702, 43.625913 ], [ -73.242042, 43.534925 ], [ -73.278673, 42.83341 ], [ -73.290944, 42.80192 ], [ -73.264957, 42.74594 ], [ -73.508142, 42.086257 ], [ -73.487314, 42.049638 ], [ -73.550961, 41.295422 ], [ -73.482709, 41.21276 ], [ -73.727775, 41.100696 ], [ -73.659533, 41.017857 ], [ -73.657336, 40.985171 ], [ -73.697974, 40.939598 ], [ -73.756776, 40.912599 ], [ -73.766276, 40.881099 ], [ -73.713674, 40.870099 ], [ -73.654372, 40.878199 ], [ -73.617571, 40.897898 ], [ -73.499941, 40.918166 ], [ -73.485365, 40.946397 ], [ -73.436664, 40.934897 ], [ -73.392862, 40.955297 ], [ -73.229285, 40.905121 ], [ -73.148994, 40.928898 ], [ -73.144673, 40.955842 ], [ -73.110368, 40.971938 ], [ -72.859831, 40.966088 ], [ -72.585327, 40.997587 ], [ -72.445242, 41.086116 ], [ -72.389809, 41.108304 ], [ -72.354123, 41.139952 ], [ -72.189163, 41.193549 ], [ -72.182033, 41.178345 ], [ -72.254704, 41.110852 ], [ -72.283093, 41.067874 ], [ -72.217476, 41.040611 ], [ -72.162898, 41.053187 ], [ -72.126704, 41.115139 ], [ -72.084207, 41.101524 ], [ -72.095711, 41.05402 ], [ -72.051928, 41.020506 ], [ -71.959595, 41.071237 ], [ -71.919385, 41.080517 ], [ -71.856214, 41.070598 ], [ -71.936977, 41.006137 ], [ -73.012545, 40.679651 ], [ -73.20844, 40.630884 ], [ -73.306396, 40.620756 ], [ -73.351465, 40.6305 ], [ -73.507325, 40.593411 ], [ -73.640902, 40.582823 ], [ -73.774928, 40.590759 ], [ -73.940591, 40.542896 ], [ -74.057316, 40.597546 ], [ -74.112585, 40.547603 ], [ -74.199923, 40.511729 ], [ -74.260611, 40.502436 ], [ -74.249211, 40.545064 ], [ -74.216839, 40.558618 ], [ -74.202247, 40.630903 ], [ -74.170611, 40.645289 ], [ -74.086806, 40.651596 ], [ -74.047313, 40.690466 ], [ -73.938081, 40.874699 ], [ -73.893979, 40.997197 ], [ -74.694914, 41.357423 ], [ -74.734893, 41.425818 ], [ -74.890358, 41.455324 ], [ -74.982463, 41.496467 ], [ -75.043879, 41.575094 ], [ -75.053431, 41.752538 ], [ -75.074412, 41.802191 ], [ -75.113369, 41.840698 ], [ -75.263005, 41.885109 ], [ -75.291762, 41.947092 ], [ -75.341125, 41.992772 ], [ -79.761313, 41.998808 ], [ -79.761951, 42.26986 ] ] ] ] } },
{ "type": "Feature", "properties": { "STUSPS": "DC", "NAME": "District of Columbia" }, "geometry": { "type": "Polygon", "coordinates": [ [ [ -77.119759, 38.934343 ], [ -77.041018, 38.995548 ], [ -76.909393, 38.892852 ], [ -77.039006, 38.791645 ], [ -77.039099, 38.868112 ], [ -77.119759, 38.934343 ] ] ] } },
{ "type": "Feature", "properties": { "STUSPS": "ME", "NAME": "Maine" }, "geometry": { "type": "MultiPolygon", "coordinates": [ [ [ [ -68.92401, 43.885407 ], [ -68.874784, 43.904715 ], [ -68.849009, 43.849841 ], [ -68.888483, 43.803781 ], [ -68.944433, 43.835326 ], [ -68.92401, 43.885407 ] ] ], [ [ [ -71.083924, 45.305451 ], [ -71.03821, 45.311922 ], [ -71.012757, 45.34476 ], [ -70.949365, 45.331536 ], [ -70.912111, 45.296197 ], [ -70.892822, 45.239172 ], [ -70.84443, 45.234513 ], [ -70.82979, 45.286941 ], [ -70.808613, 45.311606 ], [ -70.819471, 45.341435 ], [ -70.806244, 45.376558 ], [ -70.825612, 45.400305 ], [ -70.781471, 45.431159 ], [ -70.755567, 45.428361 ], [ -70.729972, 45.399359 ], [ -70.634661, 45.383608 ], [ -70.635498, 45.427817 ], [ -70.674903, 45.452399 ], [ -70.723396, 45.510394 ], [ -70.688214, 45.563981 ], [ -70.552793, 45.667836 ], [ -70.383552, 45.734869 ], [ -70.415684, 45.786158 ], [ -70.329748, 45.853795 ], [ -70.259117, 45.890755 ], [ -70.252526, 45.933176 ], [ -70.26541, 45.962692 ], [ -70.31297, 45.961856 ], [ -70.303034, 45.998976 ], [ -70.317629, 46.01908 ], [ -70.306734, 46.061344 ], [ -70.239566, 46.142762 ], [ -70.290896, 46.185838 ], [ -70.232682, 46.284428 ], [ -70.205719, 46.299865 ], [ -70.207415, 46.331316 ], [ -70.053748, 46.429236 ], [ -69.997086, 46.69523 ], [ -69.219996, 47.457159 ], [ -69.039301, 47.42217 ], [ -69.053885, 47.377878 ], [ -69.0402, 47.2451 ], [ -68.900985, 47.178519 ], [ -68.803537, 47.216033 ], [ -68.604819, 47.249418 ], [ -68.588725, 47.281721 ], [ -68.507432, 47.296636 ], [ -68.460064, 47.286065 ], [ -68.375615, 47.292268 ], [ -68.384281, 47.326943 ], [ -68.361559, 47.355605 ], [ -68.26971, 47.353733 ], [ -68.204263, 47.33973 ], [ -67.952269, 47.196142 ], [ -67.889155, 47.118772 ], [ -67.789761, 47.065744 ], [ -67.779984, 45.938163 ], [ -67.750422, 45.917898 ], [ -67.803678, 45.869379 ], [ -67.763955, 45.829983 ], [ -67.803626, 45.781624 ], [ -67.781892, 45.731189 ], [ -67.803313, 45.677886 ], [ -67.710464, 45.679372 ], [ -67.675417, 45.630959 ], [ -67.534919, 45.595428 ], [ -67.455406, 45.604665 ], [ -67.423646, 45.572153 ], [ -67.417417, 45.501985 ], [ -67.476855, 45.49724 ], [ -67.484328, 45.451955 ], [ -67.427243, 45.37369 ], [ -67.480256, 45.268185 ], [ -67.390579, 45.154114 ], [ -67.339869, 45.125594 ], [ -67.298209, 45.146672 ], [ -67.271076, 45.191081 ], [ -67.161247, 45.162879 ], [ -67.112414, 45.112323 ], [ -67.033474, 44.939923 ], [ -66.983558, 44.903277 ], [ -66.99296, 44.849181 ], [ -66.949895, 44.817419 ], [ -67.073439, 44.741957 ], [ -67.169857, 44.662105 ], [ -67.293403, 44.599265 ], [ -67.368269, 44.624672 ], [ -67.398987, 44.602631 ], [ -67.448513, 44.600322 ], [ -67.521168, 44.50991 ], [ -67.503208, 44.476918 ], [ -67.579726, 44.429131 ], [ -67.634806, 44.487054 ], [ -67.653123, 44.525823 ], [ -67.70668, 44.501975 ], [ -67.793589, 44.494779 ], [ -67.837938, 44.46467 ], [ -67.855108, 44.419434 ], [ -67.899571, 44.394078 ], [ -67.936531, 44.411187 ], [ -67.978876, 44.387034 ], [ -68.01399, 44.390255 ], [ -68.049334, 44.33073 ], [ -68.125624, 44.387127 ], [ -68.189155, 44.373833 ], [ -68.173608, 44.328397 ], [ -68.22949, 44.266918 ], [ -68.17433, 44.225908 ], [ -68.306519, 44.234829 ], [ -68.331032, 44.10758 ], [ -68.438518, 44.11618 ], [ -68.502942, 44.099722 ], [ -68.584101, 44.071589 ], [ -68.617085, 44.010097 ], [ -68.657031, 44.003823 ], [ -68.669383, 44.076359 ], [ -68.77965, 44.057754 ], [ -68.874139, 44.025359 ], [ -68.935327, 44.13038 ], [ -68.888597, 44.15955 ], [ -68.95189, 44.218719 ], [ -69.040193, 44.233673 ], [ -69.075667, 44.129991 ], [ -69.031878, 44.079036 ], [ -69.068112, 44.039768 ], [ -69.043912, 44.006336 ], [ -69.077028, 43.973654 ], [ -69.17498, 43.976949 ], [ -69.212939, 43.921404 ], [ -69.242812, 43.918818 ], [ -69.321031, 43.856708 ], [ -69.354577, 43.917765 ], [ -69.393288, 43.95642 ], [ -69.50329, 43.837673 ], [ -69.552606, 43.841347 ], [ -69.578527, 43.823316 ], [ -69.717074, 43.792403 ], [ -69.754091, 43.743866 ], [ -69.807359, 43.728081 ], [ -69.833471, 43.701281 ], [ -69.855081, 43.704746 ], [ -69.862155, 43.758962 ], [ -69.915593, 43.775112 ], [ -69.983685, 43.744395 ], [ -70.001273, 43.710388 ], [ -70.071304, 43.713772 ], [ -70.096039, 43.672276 ], [ -70.168227, 43.675136 ], [ -70.217087, 43.596717 ], [ -70.206123, 43.557627 ], [ -70.245499, 43.539635 ], [ -70.361214, 43.52919 ], [ -70.385615, 43.487031 ], [ -70.327303, 43.458521 ], [ -70.383981, 43.41294 ], [ -70.416311, 43.361059 ], [ -70.465975, 43.340246 ], [ -70.517695, 43.344037 ], [ -70.553854, 43.321886 ], [ -70.585184, 43.270113 ], [ -70.575787, 43.221859 ], [ -70.596185, 43.163466 ], [ -70.665958, 43.076234 ], [ -70.703818, 43.059825 ], [ -70.8281, 43.129086 ], [ -70.813119, 43.217252 ], [ -70.984335, 43.376128 ], [ -70.954755, 43.509802 ], [ -70.972716, 43.570255 ], [ -71.036705, 44.736498 ], [ -71.083924, 45.305451 ] ] ] ] } },
{ "type": "Feature", "properties": { "STUSPS": "WV", "NAME": "West Virginia" }, "geometry": { "type": "Polygon", "coordinates": [ [ [ -82.626182, 38.134835 ], [ -82.571877, 38.315781 ], [ -82.597979, 38.344909 ], [ -82.593673, 38.421809 ], [ -82.560664, 38.404338 ], [ -82.323999, 38.449268 ], [ -82.27427, 38.593683 ], [ -82.218967, 38.591683 ], [ -82.175167, 38.608484 ], [ -82.20929, 38.802672 ], [ -82.16157, 38.824632 ], [ -82.134766, 38.905579 ], [ -82.089065, 38.975978 ], [ -82.041563, 39.017878 ], [ -82.007062, 39.029578 ], [ -81.941829, 38.993295 ], [ -81.89847, 38.929603 ], [ -81.827354, 38.945898 ], [ -81.775734, 38.980737 ], [ -81.807855, 39.083978 ], [ -81.742953, 39.106578 ], [ -81.752754, 39.184676 ], [ -81.711628, 39.219228 ], [ -81.678331, 39.273755 ], [ -81.565247, 39.276175 ], [ -81.559647, 39.330774 ], [ -81.456143, 39.409274 ], [ -81.412706, 39.394618 ], [ -81.393794, 39.351706 ], [ -81.347567, 39.34577 ], [ -81.249088, 39.389992 ], [ -81.185946, 39.430731 ], [ -81.128533, 39.449375 ], [ -81.07595, 39.50966 ], [ -80.865575, 39.662751 ], [ -80.829764, 39.711839 ], [ -80.869933, 39.763555 ], [ -80.824969, 39.801092 ], [ -80.803394, 39.918762 ], [ -80.740126, 39.970793 ], [ -80.736804, 40.080072 ], [ -80.705994, 40.151591 ], [ -80.606596, 40.303869 ], [ -80.631596, 40.385468 ], [ -80.604895, 40.446667 ], [ -80.622195, 40.520497 ], [ -80.667957, 40.582496 ], [ -80.627171, 40.619936 ], [ -80.583633, 40.61552 ], [ -80.518991, 40.638801 ], [ -80.519342, 39.721403 ], [ -79.476662, 39.721078 ], [ -79.486873, 39.205961 ], [ -79.424413, 39.228171 ], [ -79.283723, 39.30964 ], [ -79.091329, 39.472407 ], [ -79.035623, 39.473344 ], [ -78.956751, 39.440264 ], [ -78.942618, 39.479614 ], [ -78.77114, 39.638387 ], [ -78.707098, 39.555857 ], [ -78.590654, 39.530192 ], [ -78.460951, 39.525987 ], [ -78.382959, 39.622246 ], [ -78.225075, 39.658878 ], [ -78.08226, 39.671166 ], [ -78.006734, 39.601337 ], [ -77.925988, 39.607642 ], [ -77.829814, 39.587288 ], [ -77.823762, 39.525907 ], [ -77.740012, 39.401694 ], [ -77.74593, 39.353221 ], [ -77.719519, 39.321314 ], [ -77.828157, 39.132329 ], [ -78.347087, 39.466012 ], [ -78.34048, 39.353492 ], [ -78.401813, 39.276754 ], [ -78.40498, 39.238006 ], [ -78.428697, 39.187217 ], [ -78.413943, 39.158415 ], [ -78.508132, 39.08863 ], [ -78.561711, 39.009007 ], [ -78.620453, 38.982601 ], [ -78.681617, 38.92584 ], [ -78.772793, 38.893742 ], [ -78.869276, 38.762991 ], [ -78.999014, 38.840074 ], [ -79.057253, 38.761413 ], [ -79.092955, 38.659517 ], [ -79.154357, 38.606518 ], [ -79.23162, 38.474041 ], [ -79.297758, 38.416438 ], [ -79.476638, 38.457228 ], [ -79.54257, 38.553217 ], [ -79.649075, 38.591515 ], [ -79.691088, 38.463744 ], [ -79.689675, 38.431439 ], [ -79.7346, 38.356728 ], [ -79.804093, 38.313922 ], [ -79.787542, 38.273298 ], [ -79.916174, 38.184386 ], [ -79.971231, 38.044326 ], [ -80.036236, 37.96792 ], [ -80.199633, 37.827507 ], [ -80.258143, 37.720612 ], [ -80.292258, 37.683732 ], [ -80.223386, 37.623185 ], [ -80.28244, 37.585481 ], [ -80.291644, 37.536505 ], [ -80.46482, 37.426144 ], [ -80.544836, 37.474695 ], [ -80.770082, 37.372363 ], [ -80.836446, 37.424355 ], [ -80.865148, 37.419927 ], [ -80.883248, 37.383933 ], [ -80.835479, 37.334824 ], [ -80.919259, 37.306163 ], [ -81.112596, 37.278497 ], [ -81.225104, 37.234874 ], [ -81.362156, 37.337687 ], [ -81.427946, 37.271015 ], [ -81.560625, 37.206663 ], [ -81.678603, 37.202467 ], [ -81.774747, 37.274847 ], [ -81.849949, 37.285227 ], [ -81.933601, 37.389217 ], [ -81.93695, 37.41992 ], [ -81.984891, 37.454315 ], [ -81.932279, 37.511961 ], [ -81.968297, 37.537798 ], [ -82.064418, 37.544516 ], [ -82.226111, 37.653092 ], [ -82.296118, 37.686174 ], [ -82.327356, 37.762233 ], [ -82.41869, 37.872375 ], [ -82.487556, 37.916975 ], [ -82.464987, 37.976859 ], [ -82.626182, 38.134835 ] ] ] } },
{ "type": "Feature", "properties": { "STUSPS": "NH", "NAME": "New Hampshire" }, "geometry": { "type": "Polygon", "coordinates": [ [ [ -72.556112, 42.866252 ], [ -72.531469, 42.89795 ], [ -72.532186, 42.954945 ], [ -72.492597, 42.967648 ], [ -72.444977, 43.004416 ], [ -72.462248, 43.044214 ], [ -72.435191, 43.086622 ], [ -72.451802, 43.153486 ], [ -72.402532, 43.32038 ], [ -72.413377, 43.362741 ], [ -72.380894, 43.493394 ], [ -72.37944, 43.574069 ], [ -72.329522, 43.608393 ], [ -72.284805, 43.72036 ], [ -72.222069, 43.759831 ], [ -72.183333, 43.808177 ], [ -72.16978, 43.873425 ], [ -72.105875, 43.94937 ], [ -72.116706, 43.991954 ], [ -72.075486, 44.034614 ], [ -72.036883, 44.103119 ], [ -72.061338, 44.184951 ], [ -72.046302, 44.291983 ], [ -72.002314, 44.324871 ], [ -71.818838, 44.352939 ], [ -71.778613, 44.399799 ], [ -71.69092, 44.421234 ], [ -71.646551, 44.468869 ], [ -71.579974, 44.501778 ], [ -71.588076, 44.54785 ], [ -71.544922, 44.579278 ], [ -71.551722, 44.627598 ], [ -71.626909, 44.747224 ], [ -71.494403, 44.911837 ], [ -71.531605, 44.976023 ], [ -71.501088, 45.013377 ], [ -71.498399, 45.069629 ], [ -71.448678, 45.109001 ], [ -71.405636, 45.198139 ], [ -71.438546, 45.239004 ], [ -71.283684, 45.301977 ], [ -71.244499, 45.268139 ], [ -71.182587, 45.241069 ], [ -71.13943, 45.242958 ], [ -71.083924, 45.305451 ], [ -71.036705, 44.736498 ], [ -70.972716, 43.570255 ], [ -70.954755, 43.509802 ], [ -70.984335, 43.376128 ], [ -70.813119, 43.217252 ], [ -70.8281, 43.129086 ], [ -70.703818, 43.059825 ], [ -70.798636, 42.924288 ], [ -70.817296, 42.87229 ], [ -70.930799, 42.884589 ], [ -71.031201, 42.859089 ], [ -71.064201, 42.806289 ], [ -71.149703, 42.815489 ], [ -71.186104, 42.790689 ], [ -71.181803, 42.73759 ], [ -71.255605, 42.736389 ], [ -71.294205, 42.69699 ], [ -72.458519, 42.726853 ], [ -72.477615, 42.761245 ], [ -72.5396, 42.804832 ], [ -72.556112, 42.866252 ] ] ] } },
{ "type": "Feature", "properties": { "STUSPS": "PA", "NAME": "Pennsylvania" }, "geometry": { "type": "Polygon", "coordinates": [ [ [ -80.519342, 39.721403 ], [ -80.519425, 41.977523 ], [ -80.329976, 42.036168 ], [ -80.154084, 42.114757 ], [ -80.136213, 42.149937 ], [ -80.088512, 42.173184 ], [ -80.020323, 42.163116 ], [ -79.761951, 42.26986 ], [ -79.761313, 41.998808 ], [ -75.341125, 41.992772 ], [ -75.291762, 41.947092 ], [ -75.263005, 41.885109 ], [ -75.113369, 41.840698 ], [ -75.074412, 41.802191 ], [ -75.053431, 41.752538 ], [ -75.043879, 41.575094 ], [ -74.982463, 41.496467 ], [ -74.890358, 41.455324 ], [ -74.734893, 41.425818 ], [ -74.694914, 41.357423 ], [ -74.760325, 41.340325 ], [ -74.815703, 41.296151 ], [ -74.905256, 41.155668 ], [ -74.979873, 41.110423 ], [ -75.015271, 41.061215 ], [ -75.133086, 40.980179 ], [ -75.065438, 40.885682 ], [ -75.090962, 40.849187 ], [ -75.108505, 40.791094 ], [ -75.177477, 40.764225 ], [ -75.192612, 40.715874 ], [ -75.186737, 40.569406 ], [ -75.136748, 40.575731 ], [ -75.078503, 40.548296 ], [ -75.056102, 40.416066 ], [ -74.969597, 40.39977 ], [ -74.946006, 40.357306 ], [ -74.721604, 40.15381 ], [ -74.769488, 40.129145 ], [ -74.825907, 40.12391 ], [ -74.863809, 40.08221 ], [ -74.932211, 40.068411 ], [ -75.11922, 39.965412 ], [ -75.13572, 39.947112 ], [ -75.13342, 39.896213 ], [ -75.221025, 39.861113 ], [ -75.341765, 39.846082 ], [ -75.415062, 39.801919 ], [ -75.481207, 39.829191 ], [ -75.570433, 39.839185 ], [ -75.662846, 39.821425 ], [ -75.717059, 39.792325 ], [ -75.773786, 39.7222 ], [ -80.519342, 39.721403 ] ] ] } },
{ "type": "Feature", "properties": { "STUSPS": "MA", "NAME": "Massachusetts" }, "geometry": { "type": "MultiPolygon", "coordinates": [ [ [ [ -70.275526, 41.310464 ], [ -70.079133, 41.319504 ], [ -70.049053, 41.391702 ], [ -69.984869, 41.358818 ], [ -69.960181, 41.264546 ], [ -70.015225, 41.237964 ], [ -70.211479, 41.248765 ], [ -70.275526, 41.310464 ] ] ], [ [ [ -70.833802, 41.353386 ], [ -70.757797, 41.365702 ], [ -70.686881, 41.441334 ], [ -70.603555, 41.482384 ], [ -70.496197, 41.424908 ], [ -70.463833, 41.419145 ], [ -70.448262, 41.353651 ], [ -70.693635, 41.342833 ], [ -70.768687, 41.303702 ], [ -70.821284, 41.251014 ], [ -70.833802, 41.353386 ] ] ], [ [ [ -73.508142, 42.086257 ], [ -73.264957, 42.74594 ], [ -71.294205, 42.69699 ], [ -71.255605, 42.736389 ], [ -71.181803, 42.73759 ], [ -71.186104, 42.790689 ], [ -71.149703, 42.815489 ], [ -71.064201, 42.806289 ], [ -71.031201, 42.859089 ], [ -70.930799, 42.884589 ], [ -70.817296, 42.87229 ], [ -70.80522, 42.781798 ], [ -70.772267, 42.711064 ], [ -70.72982, 42.669602 ], [ -70.681594, 42.662342 ], [ -70.645101, 42.689423 ], [ -70.602506, 42.677702 ], [ -70.594014, 42.63503 ], [ -70.654727, 42.582234 ], [ -70.848492, 42.550195 ], [ -70.835991, 42.490496 ], [ -70.886493, 42.470197 ], [ -70.913192, 42.427697 ], [ -70.982994, 42.423996 ], [ -70.974897, 42.355843 ], [ -70.997838, 42.321205 ], [ -70.967351, 42.268168 ], [ -70.91749, 42.305686 ], [ -70.881242, 42.300663 ], [ -70.851093, 42.26827 ], [ -70.788724, 42.25392 ], [ -70.73056, 42.21094 ], [ -70.685315, 42.133025 ], [ -70.63848, 42.081579 ], [ -70.644337, 42.045895 ], [ -70.678798, 42.00551 ], [ -70.662476, 41.960592 ], [ -70.608166, 41.940701 ], [ -70.583572, 41.950007 ], [ -70.546386, 41.916751 ], [ -70.525567, 41.85873 ], [ -70.54103, 41.815754 ], [ -70.494048, 41.773883 ], [ -70.441718, 41.752898 ], [ -70.272289, 41.721346 ], [ -70.024734, 41.787364 ], [ -70.003842, 41.80852 ], [ -70.006111, 41.852396 ], [ -70.06901, 41.884924 ], [ -70.083775, 42.012041 ], [ -70.15076, 42.026569 ], [ -70.190834, 42.020028 ], [ -70.245385, 42.063733 ], [ -70.138942, 42.092907 ], [ -70.049382, 42.064689 ], [ -69.994136, 41.999258 ], [ -69.935952, 41.809422 ], [ -69.931129, 41.622659 ], [ -69.964982, 41.55111 ], [ -70.011229, 41.543931 ], [ -70.007011, 41.671579 ], [ -70.158621, 41.650438 ], [ -70.269687, 41.617775 ], [ -70.321588, 41.630508 ], [ -70.445289, 41.591815 ], [ -70.476256, 41.558502 ], [ -70.559689, 41.54833 ], [ -70.654104, 41.519025 ], [ -70.734306, 41.486335 ], [ -70.79027, 41.446339 ], [ -70.948431, 41.409193 ], [ -70.934986, 41.454699 ], [ -70.806861, 41.497583 ], [ -70.698197, 41.559002 ], [ -70.695392, 41.602546 ], [ -70.765463, 41.641575 ], [ -70.82191, 41.582841 ], [ -70.910165, 41.577073 ], [ -70.981708, 41.51007 ], [ -71.035514, 41.499047 ], [ -71.085663, 41.509292 ], [ -71.12057, 41.497448 ], [ -71.137492, 41.602561 ], [ -71.132888, 41.660102 ], [ -71.19564, 41.67509 ], [ -71.261392, 41.752301 ], [ -71.329396, 41.7826 ], [ -71.339298, 41.893399 ], [ -71.3817, 41.893199 ], [ -71.381401, 42.018798 ], [ -71.799242, 42.008065 ], [ -71.80065, 42.023569 ], [ -72.735496, 42.036399 ], [ -72.766739, 42.002995 ], [ -72.810078, 41.998316 ], [ -72.847142, 42.036894 ], [ -73.487314, 42.049638 ], [ -73.508142, 42.086257 ] ] ] ] } },
{ "type": "Feature", "properties": { "STUSPS": "DE", "NAME": "Delaware" }, "geometry": { "type": "Polygon", "coordinates": [ [ [ -75.773786, 39.7222 ], [ -75.717059, 39.792325 ], [ -75.662846, 39.821425 ], [ -75.570433, 39.839185 ], [ -75.481207, 39.829191 ], [ -75.415062, 39.801919 ], [ -75.459439, 39.765813 ], [ -75.47764, 39.715013 ], [ -75.559446, 39.629812 ], [ -75.543965, 39.596 ], [ -75.512732, 39.578 ], [ -75.528088, 39.498114 ], [ -75.593068, 39.479186 ], [ -75.57183, 39.438897 ], [ -75.408376, 39.264698 ], [ -75.39479, 39.188354 ], [ -75.407473, 39.133706 ], [ -75.396277, 39.057884 ], [ -75.34089, 39.01996 ], [ -75.302552, 38.939002 ], [ -75.304078, 38.91316 ], [ -75.159022, 38.790193 ], [ -75.113331, 38.782998 ], [ -75.089473, 38.797198 ], [ -75.048939, 38.451263 ], [ -75.693721, 38.460128 ], [ -75.766895, 39.377499 ], [ -75.788596, 39.722199 ], [ -75.773786, 39.7222 ] ] ] } },
{ "type": "Feature", "properties": { "STUSPS": "VT", "NAME": "Vermont" }, "geometry": { "type": "Polygon", "coordinates": [ [ [ -73.43688, 44.042578 ], [ -73.395399, 44.166903 ], [ -73.316618, 44.257769 ], [ -73.334637, 44.356877 ], [ -73.293613, 44.440559 ], [ -73.312871, 44.507246 ], [ -73.367275, 44.567545 ], [ -73.389966, 44.61962 ], [ -73.33443, 44.802188 ], [ -73.365678, 44.826451 ], [ -73.379822, 44.857037 ], [ -73.338979, 44.917681 ], [ -73.343124, 45.01084 ], [ -71.501088, 45.013377 ], [ -71.531605, 44.976023 ], [ -71.494403, 44.911837 ], [ -71.626909, 44.747224 ], [ -71.551722, 44.627598 ], [ -71.544922, 44.579278 ], [ -71.588076, 44.54785 ], [ -71.579974, 44.501778 ], [ -71.646551, 44.468869 ], [ -71.69092, 44.421234 ], [ -71.778613, 44.399799 ], [ -71.818838, 44.352939 ], [ -72.002314, 44.324871 ], [ -72.046302, 44.291983 ], [ -72.061338, 44.184951 ], [ -72.036883, 44.103119 ], [ -72.075486, 44.034614 ], [ -72.116706, 43.991954 ], [ -72.105875, 43.94937 ], [ -72.16978, 43.873425 ], [ -72.183333, 43.808177 ], [ -72.222069, 43.759831 ], [ -72.284805, 43.72036 ], [ -72.329522, 43.608393 ], [ -72.37944, 43.574069 ], [ -72.380894, 43.493394 ], [ -72.413377, 43.362741 ], [ -72.402532, 43.32038 ], [ -72.451802, 43.153486 ], [ -72.435191, 43.086622 ], [ -72.462248, 43.044214 ], [ -72.444977, 43.004416 ], [ -72.492597, 42.967648 ], [ -72.532186, 42.954945 ], [ -72.531469, 42.89795 ], [ -72.556112, 42.866252 ], [ -72.5396, 42.804832 ], [ -72.477615, 42.761245 ], [ -72.458519, 42.726853 ], [ -73.264957, 42.74594 ], [ -73.290944, 42.80192 ], [ -73.278673, 42.83341 ], [ -73.242042, 43.534925 ], [ -73.327702, 43.625913 ], [ -73.395767, 43.568087 ], [ -73.424977, 43.598775 ], [ -73.414546, 43.658209 ], [ -73.350707, 43.770463 ], [ -73.390302, 43.817371 ], [ -73.374051, 43.875563 ], [ -73.407742, 43.929887 ], [ -73.405977, 44.011485 ], [ -73.43688, 44.042578 ] ] ] } },
{ "type": "Feature", "properties": { "STUSPS": "RI", "NAME": "Rhode Island" }, "geometry": { "type": "MultiPolygon", "coordinates": [ [ [ [ -71.631472, 41.166678 ], [ -71.593342, 41.237428 ], [ -71.54541, 41.24273 ], [ -71.51921, 41.149624 ], [ -71.5937, 41.146339 ], [ -71.631472, 41.166678 ] ] ], [ [ [ -71.862772, 41.309791 ], [ -71.835951, 41.353935 ], [ -71.839649, 41.412119 ], [ -71.797683, 41.416709 ], [ -71.789678, 41.724734 ], [ -71.799242, 42.008065 ], [ -71.381401, 42.018798 ], [ -71.3817, 41.893199 ], [ -71.339298, 41.893399 ], [ -71.329396, 41.7826 ], [ -71.261392, 41.752301 ], [ -71.19564, 41.67509 ], [ -71.132888, 41.660102 ], [ -71.137492, 41.602561 ], [ -71.12057, 41.497448 ], [ -71.19302, 41.457931 ], [ -71.285639, 41.487805 ], [ -71.312694, 41.451402 ], [ -71.428652, 41.454158 ], [ -71.483295, 41.371722 ], [ -71.555381, 41.373316 ], [ -71.701631, 41.336968 ], [ -71.862772, 41.309791 ] ] ] ] } },
{ "type": "Feature", "properties": { "STUSPS": "NJ", "NAME": "New Jersey" }, "geometry": { "type": "Polygon", "coordinates": [ [ [ -75.559446, 39.629812 ], [ -75.47764, 39.715013 ], [ -75.459439, 39.765813 ], [ -75.415062, 39.801919 ], [ -75.341765, 39.846082 ], [ -75.221025, 39.861113 ], [ -75.13342, 39.896213 ], [ -75.13572, 39.947112 ], [ -75.11922, 39.965412 ], [ -74.932211, 40.068411 ], [ -74.863809, 40.08221 ], [ -74.825907, 40.12391 ], [ -74.769488, 40.129145 ], [ -74.721604, 40.15381 ], [ -74.946006, 40.357306 ], [ -74.969597, 40.39977 ], [ -75.056102, 40.416066 ], [ -75.078503, 40.548296 ], [ -75.136748, 40.575731 ], [ -75.186737, 40.569406 ], [ -75.192612, 40.715874 ], [ -75.177477, 40.764225 ], [ -75.108505, 40.791094 ], [ -75.090962, 40.849187 ], [ -75.065438, 40.885682 ], [ -75.133086, 40.980179 ], [ -75.015271, 41.061215 ], [ -74.979873, 41.110423 ], [ -74.905256, 41.155668 ], [ -74.815703, 41.296151 ], [ -74.760325, 41.340325 ], [ -74.694914, 41.357423 ], [ -73.893979, 40.997197 ], [ -73.938081, 40.874699 ], [ -74.047313, 40.690466 ], [ -74.086806, 40.651596 ], [ -74.170611, 40.645289 ], [ -74.202247, 40.630903 ], [ -74.216839, 40.558618 ], [ -74.249211, 40.545064 ], [ -74.260611, 40.502436 ], [ -74.261889, 40.464706 ], [ -74.206188, 40.440707 ], [ -74.108295, 40.443788 ], [ -74.047884, 40.418908 ], [ -74.019334, 40.471244 ], [ -73.997943, 40.476668 ], [ -73.976982, 40.408508 ], [ -73.981681, 40.279411 ], [ -74.064135, 39.979157 ], [ -74.101443, 39.756173 ], [ -74.190974, 39.625118 ], [ -74.291585, 39.507705 ], [ -74.304343, 39.471445 ], [ -74.36699, 39.402017 ], [ -74.412692, 39.360816 ], [ -74.521797, 39.313816 ], [ -74.646595, 39.212002 ], [ -74.714341, 39.119804 ], [ -74.705876, 39.102937 ], [ -74.807917, 38.985948 ], [ -74.864458, 38.94041 ], [ -74.967274, 38.933413 ], [ -74.955363, 39.001262 ], [ -74.903664, 39.087437 ], [ -74.885914, 39.143627 ], [ -74.905181, 39.174945 ], [ -74.998002, 39.191253 ], [ -75.048487, 39.215222 ], [ -75.090794, 39.210802 ], [ -75.136667, 39.181883 ], [ -75.166667, 39.222577 ], [ -75.244357, 39.2857 ], [ -75.285333, 39.292212 ], [ -75.326754, 39.332473 ], [ -75.442393, 39.402291 ], [ -75.465212, 39.43893 ], [ -75.536431, 39.460559 ], [ -75.512732, 39.578 ], [ -75.543965, 39.596 ], [ -75.559446, 39.629812 ] ] ] } }
]
}
